[{"OBJECT_NAME":"STARLINK-4616","OBJECT_ID":"2022-107AL","EPOCH":"2026-03-09T19:54:06.229728","MEAN_MOTION":15.0883789,"ECCENTRICITY":0.0001287,"INCLINATION":53.2167,"RA_OF_ASC_NODE":253.5681,"ARG_OF_PERICENTER":84.3431,"MEAN_ANOMALY":275.7708,"EPHEMERIS_TYPE":0,"CLASSIFICATION_TYPE":"U","NORAD_CAT_ID":53734,"ELEMENT_SET_NO":999,"REV_AT_EPOCH":19460,"BSTAR":6.1401084e-5,"MEAN_MOTION_DOT":6.89e-6,"MEAN_MOTION_DDOT":0},{"OBJECT_NAME":"CZ-4B DEB","OBJECT_ID":"2004-035K","EPOCH":"2026-03-08T06:51:30.377664","MEAN_MOTION":15.09293825,"ECCENTRICITY":0.00031468,"INCLINATION":97.5843,"RA_OF_ASC_NODE":91.2716,"ARG_OF_PERICENTER":107.6302,"MEAN_ANOMALY":252.527,"EPHEMERIS_TYPE":0,"CLASSIFICATION_TYPE":"U","NORAD_CAT_ID":29043,"ELEMENT_SET_NO":999,"REV_AT_EPOCH":10418,"BSTAR":0.00031897975,"MEAN_MOTION_DOT":5.021e-5,"MEAN_MOTION_DDOT":0}]
